IRIDIUM 150             
1 43257U 18030J   23277.90036892  .00000496  00000+0  17014-3 0  9995
2 43257  86.4008 342.6826 0001855  91.2020 268.9388 14.34217964288792
IRIDIUM 143             
1 43258U 18030K   23277.88134042  .00000501  00000+0  17179-3 0  9998
2 43258  86.4012 342.7437 0002125  98.7055 261.4382 14.34219192288728
IRIDIUM 161             
1 43478U 18047C   23277.72975084  .00000640  00000+0  18434-3 0  9991
2 43478  86.4517 140.7874 0001936  75.2139 284.9276 14.43270534282852
IRIDIUM 152             
1 43479U 18047D   23277.85404744  .00000477  00000+0  16313-3 0  9998
2 43479  86.3974 140.5936 0002003  92.1552 267.9874 14.34223681281113
IRIDIUM 147             
1 43480U 18047E   23277.86039163  .00000484  00000+0  16559-3 0  9990
2 43480  86.3976 140.5788 0002302  81.8798 278.2659 14.34217153281114
IRIDIUM 110             
1 43481U 18047F   23277.86673905  .00000513  00000+0  17613-3 0  9994
2 43481  86.3984 140.6427 0002245  76.2446 283.8999 14.34218595281108
IRIDIUM 162             
1 43482U 18047G   23277.72342286  .00000647  00000+0  18615-3 0  9996
2 43482  86.4500 140.6918 0002122  83.9289 276.2154 14.43296203282846
IRIDIUM 160             
1 43569U 18061A   23277.81257951  .00000162  00000+0  50742-4 0  9992
2 43569  86.3919 109.0353 0002314  92.9990 267.1470 14.34218784271991
